{"spkid": "50892766", "covariance": {"data": [["2.641887553762803E-16", "-5.069375061463614E-16", "-7.171880820674493E-15", "5.20906815598198E-14", "-7.956726554751444E-14", "1.779494411590573E-14"], ["-5.069375061463614E-16", "9.770359851066727E-16", "6.055018304818373E-14", "-7.451448731238604E-14", "1.36433027548722E-13", "-3.442345307355657E-14"], ["-7.171880820674493E-15", "6.055018304818373E-14", "5.968293461449973E-10", "4.167073617836718E-10", "-2.926937198609755E-10", "6.870567851844773E-12"], ["5.20906815598198E-14", "-7.451448731238604E-14", "4.167073617836718E-10", "2.907593128460045E-9", "-2.829419760022628E-9", "3.925789732377121E-11"], ["-7.956726554751444E-14", "1.36433027548722E-13", "-2.926937198609755E-10", "-2.829419760022628E-9", "2.788417638574824E-9", "-4.031759974076198E-11"], ["1.779494411590573E-14", "-3.442345307355657E-14", "6.870567851844773E-12", "3.925789732377121E-11", "-4.031759974076198E-11", "3.714823905368153E-11"]], "elements": [{"units": null, "title": "eccentricity", "value": ".785281041316475", "name": "e", "sigma": 1.62538843165651e-08, "label": "e"}, {"label": "q", "units": "au", "value": ".4138765564177653", "title": "perihelion distance", "name": "q", "sigma": 3.12575748436547e-08}, {"label": "tp", "sigma": 2.44300909974768e-05, "name": "tp", "title": "time of perihelion passage", "value": "2459720.004254755246", "units": "TDB"}, {"sigma": 5.39221024113493e-05, "name": "om", "value": "215.8344128082668", "title": "longitude of the ascending node", "units": "deg", "label": "node"}, {"units": "deg", "value": "76.84564373824441", "title": "argument of perihelion", "sigma": 5.28054697789426e-05, "name": "w", "label": "peri"}, {"label": "i", "name": "i", "sigma": 6.0949355249815e-06, "title": "inclination", "value": "2.739618496495468", "units": "deg"}], "labels": ["e", "q", "tp", "node", "peri", "i"], "epoch": "2459288.5"}, "elements": [{"name": "e", "sigma": "1.6189E-8", "title": "eccentricity", "value": ".7846410890604977", "units": null, "label": "e"}, {"sigma": "8.8258E-9", "name": "a", "units": "au", "title": "semi-major axis", "value": "1.929728602623593", "label": "a"}, {"label": "q", "units": "au", "value": ".4155842502698247", "title": "perihelion distance", "sigma": "3.115E-8", "name": "q"}, {"sigma": "6.0696E-6", "name": "i", "value": "2.728922131077144", "title": "inclination; angle with respect to x-y ecliptic plane", "units": "deg", "label": "i"}, {"label": "node", "name": "om", "sigma": "5.4254E-5", "title": "longitude of the ascending node", "value": "215.1833936007488", "units": "deg"}, {"label": "peri", "value": "77.55928472217168", "title": "argument of perihelion", "units": "deg", "sigma": "5.3139E-5", "name": "w"}, {"units": "deg", "title": "mean anomaly", "value": "184.9891990063197", "sigma": "1.2543E-5", "name": "ma", "label": "M"}, {"name": "tp", "sigma": "3.7228E-5", "units": "TDB", "value": "2461676.498001891446", "title": "time of perihelion passage", "label": "tp"}, {"label": "period", "name": "per", "sigma": "6.7172E-6", "title": "sidereal orbital period", "value": "979.1354574001888", "units": "d"}, {"label": "n", "name": "n", "sigma": "2.5224E-9", "title": "mean motion", "value": ".3676712933631021", "units": "deg/d"}, {"label": "Q", "sigma": "1.5751E-8", "name": "ad", "units": "au", "value": "3.443872954977362", "title": "aphelion distance"}], "epoch": "2461200.5"}